MALLIGYONG-1            
1 58400U 23179A   24076.21789629  .00005130  00000+0  23141-3 0  9994
2 58400  97.4164 324.4552 0008312 220.0031 140.0593 15.21423199 17587
